{"type": "FeatureCollection", "features": [ {"type": "Feature", "properties": {"norad_id": 34327, "name": "COSMOS 2251 DEB", "group": "cosmos-2251-debris", "lat": -48.193300438419286, "lon": 171.18439019055384, "alt_km": 596.3256979162898, "timestamp": "2025-12-03T17:47:51.112242+00:00", "meta": {"OBJECT_NAME": "COSMOS 2251 DEB", "OBJECT_ID": "1993-036NZ", "EPOCH": "2025-12-03T00:49:47.897760", "MEAN_MOTION": 14.8883387, "ECCENTRICITY": 0.00322303, "INCLINATION": 73.994, "RA_OF_ASC_NODE": 191.3214, "ARG_OF_PERICENTER": 9.6895, "MEAN_ANOMALY": 112.1415, "EPHEMERIS_TYPE": 0, "CLASSIFICATION_TYPE": "U", "NORAD_CAT_ID": 34327, "ELEMENT_SET_NO": 999, "REV_AT_EPOCH": 89363, "BSTAR": 0.0016050638, "MEAN_MOTION_DOT": 0.00015182, "MEAN_MOTION_DDOT": 0}, "tle": {"line1": "1 34327U 93036NZ  25337.03458215  .00015182  00000+0  16051-2 0  9999", "line2": "2 34327  73.9940 191.3214 0032230   9.6895 112.1415 14.88833870893635"}}, "geometry": {"type": "Point", "coordinates": [171.18439019055384, -48.193300438419286]}}, {"type": "Feature", "properties": {"norad_id": 34340, "name": "COSMOS 2251 DEB", "group": "cosmos-2251-debris", "lat": 43.950817986929245, "lon": -21.01337267643557, "alt_km": 775.5507242219855, "timestamp": "2025-12-03T17:47:51.112253+00:00", "meta": {"OBJECT_NAME": "COSMOS 2251 DEB", "OBJECT_ID": "1993-036PN", "EPOCH": "2025-12-03T09:36:02.401056", "MEAN_MOTION": 13.79523949, "ECCENTRICITY": 0.0281783, "INCLINATION": 74.079, "RA_OF_ASC_NODE": 323.5851, "ARG_OF_PERICENTER": 73.6976, "MEAN_ANOMALY": 78.4865, "EPHEMERIS_TYPE": 0, "CLASSIFICATION_TYPE": "U", "NORAD_CAT_ID": 34340, "ELEMENT_SET_NO": 999, "REV_AT_EPOCH": 84139, "BSTAR": 0.001125, "MEAN_MOTION_DOT": 1.54e-05, "MEAN_MOTION_DDOT": 0}, "tle": {"line1": "1 34340U 93036PN  25337.40002779  .00001540  00000+0  11250-2 0  9994", "line2": "2 34340  74.0790 323.5851 0281783  73.6976  78.4865 13.79523949841392"}}, "geometry": {"type": "Point", "coordinates": [-21.01337267643557, 43.950817986929245]}}, {"type": "Feature", "properties": {"norad_id": 34343, "name": "COSMOS 2251 DEB", "group": "cosmos-2251-debris", "lat": 73.04518631063355, "lon": -143.0500564777688, "alt_km": 650.991035053954, "timestamp": "2025-12-03T17:47:51.112263+00:00", "meta": {"OBJECT_NAME": "COSMOS 2251 DEB", "OBJECT_ID": "1993-036PR", "EPOCH": "2025-12-03T11:06:15.590016", "MEAN_MOTION": 14.69155265, "ECCENTRICITY": 0.0022538, "INCLINATION": 74.0194, "RA_OF_ASC_NODE": 107.5382, "ARG_OF_PERICENTER": 26.0419, "MEAN_ANOMALY": 35.0201, "EPHEMERIS_TYPE": 0, "CLASSIFICATION_TYPE": "U", "NORAD_CAT_ID": 34343, "ELEMENT_SET_NO": 999, "REV_AT_EPOCH": 88594, "BSTAR": 0.0021845, "MEAN_MOTION_DOT": 0.00012895, "MEAN_MOTION_DDOT": 0}, "tle": {"line1": "1 34343U 93036PR  25337.46268044  .00012895  00000+0  21845-2 0  9998", "line2": "2 34343  74.0194 107.5382 0022538  26.0419  35.0201 14.69155265885941"}}, "geometry": {"type": "Point", "coordinates": [-143.0500564777688, 73.04518631063355]}}, {"type": "Feature", "properties": {"norad_id": 34344, "name": "COSMOS 2251 DEB", "group": "cosmos-2251-debris", "lat": 63.84252626185971, "lon": -89.40231202204268, "alt_km": 935.1889661285941, "timestamp": "2025-12-03T17:47:51.112274+00:00", "meta": {"OBJECT_NAME": "COSMOS 2251 DEB", "OBJECT_ID": "1993-036PS", "EPOCH": "2025-12-02T12:47:13.899264", "MEAN_MOTION": 14.16298308, "ECCENTRICITY": 0.01551689, "INCLINATION": 73.9766, "RA_OF_ASC_NODE": 128.565, "ARG_OF_PERICENTER": 314.8879, "MEAN_ANOMALY": 114.6708, "EPHEMERIS_TYPE": 0, "CLASSIFICATION_TYPE": "U", "NORAD_CAT_ID": 34344, "ELEMENT_SET_NO": 999, "REV_AT_EPOCH": 85952, "BSTAR": 0.0017796422, "MEAN_MOTION_DOT": 3.944e-05, "MEAN_MOTION_DDOT": 0}, "tle": {"line1": "1 34344U 93036PS  25336.53279976  .00003944  00000+0  17796-2 0  9997", "line2": "2 34344  73.9766 128.5650 0155168 314.8879 114.6708 14.16298308859529"}}, "geometry": {"type": "Point", "coordinates": [-89.40231202204268, 63.84252626185971]}}, {"type": "Feature", "properties": {"norad_id": 34346, "name": "COSMOS 2251 DEB", "group": "cosmos-2251-debris", "lat": 38.48547377568758, "lon": -18.949007203154125, "alt_km": 936.6398719730814, "timestamp": "2025-12-03T17:47:51.112284+00:00", "meta": {"OBJECT_NAME": "COSMOS 2251 DEB", "OBJECT_ID": "1993-036PU", "EPOCH": "2025-12-03T09:47:58.874784", "MEAN_MOTION": 13.9964907, "ECCENTRICITY": 0.0206784, "INCLINATION": 73.9945, "RA_OF_ASC_NODE": 328.4382, "ARG_OF_PERICENTER": 149.5728, "MEAN_ANOMALY": 14.6395, "EPHEMERIS_TYPE": 0, "CLASSIFICATION_TYPE": "U", "NORAD_CAT_ID": 34346, "ELEMENT_SET_NO": 999, "REV_AT_EPOCH": 85279, "BSTAR": 0.00112, "MEAN_MOTION_DOT": 1.946e-05, "MEAN_MOTION_DDOT": 0}, "tle": {"line1": "1 34346U 93036PU  25337.40832031  .00001946  00000+0  11200-2 0  9997", "line2": "2 34346  73.9945 328.4382 0206784 149.5728  14.6395 13.99649070852799"}}, "geometry": {"type": "Point", "coordinates": [-18.949007203154125, 38.48547377568758]}}, {"type": "Feature", "properties": {"norad_id": 34383, "name": "COSMOS 2251 DEB", "group": "cosmos-2251-debris", "lat": -35.17413100747881, "lon": -55.406208672514346, "alt_km": 548.8523017031266, "timestamp": "2025-12-03T17:47:51.112295+00:00", "meta": {"OBJECT_NAME": "COSMOS 2251 DEB", "OBJECT_ID": "1993-036PY", "EPOCH": "2025-12-03T08:58:18.358176", "MEAN_MOTION": 15.07540663, "ECCENTRICITY": 0.0003071, "INCLINATION": 74.021, "RA_OF_ASC_NODE": 317.0009, "ARG_OF_PERICENTER": 35.503, "MEAN_ANOMALY": 92.8624, "EPHEMERIS_TYPE": 0, "CLASSIFICATION_TYPE": "U", "NORAD_CAT_ID": 34383, "ELEMENT_SET_NO": 999, "REV_AT_EPOCH": 88972, "BSTAR": 0.0038957, "MEAN_MOTION_DOT": 0.00059679, "MEAN_MOTION_DDOT": 0}, "tle": {"line1": "1 34383U 93036PY  25337.37382359  .00059679  00000+0  38957-2 0  9991", "line2": "2 34383  74.0210 317.0009 0003071  35.5030  92.8624 15.07540663889726"}}, "geometry": {"type": "Point", "coordinates": [-55.406208672514346, -35.17413100747881]}}, {"type": "Feature", "properties": {"norad_id": 34387, "name": "COSMOS 2251 DEB", "group": "cosmos-2251-debris", "lat": -7.88094169428888, "lon": 50.89006510485556, "alt_km": 770.320087709878, "timestamp": "2025-12-03T17:47:51.112379+00:00", "meta": {"OBJECT_NAME": "COSMOS 2251 DEB", "OBJECT_ID": "1993-036QC", "EPOCH": "2025-12-02T19:37:56.877888", "MEAN_MOTION": 14.43785146, "ECCENTRICITY": 0.00385289, "INCLINATION": 74.0405, "RA_OF_ASC_NODE": 230.3357, "ARG_OF_PERICENTER": 329.1775, "MEAN_ANOMALY": 100.8975, "EPHEMERIS_TYPE": 0, "CLASSIFICATION_TYPE": "U", "NORAD_CAT_ID": 34387, "ELEMENT_SET_NO": 999, "REV_AT_EPOCH": 88038, "BSTAR": 0.00039323543, "MEAN_MOTION_DOT": 1.323e-05, "MEAN_MOTION_DDOT": 0}, "tle": {"line1": "1 34387U 93036QC  25336.81801942  .00001323  00000+0  39324-3 0  9990", "line2": "2 34387  74.0405 230.3357 0038528 329.1775 100.8975 14.43785146880380"}}, "geometry": {"type": "Point", "coordinates": [50.89006510485556, -7.88094169428888]}}, {"type": "Feature", "properties": {"norad_id": 34388, "name": "COSMOS 2251 DEB", "group": "cosmos-2251-debris", "lat": -7.485608989806881, "lon": -122.17589206990385, "alt_km": 727.0368495701368, "timestamp": "2025-12-03T17:47:51.112392+00:00", "meta": {"OBJECT_NAME": "COSMOS 2251 DEB", "OBJECT_ID": "1993-036QD", "EPOCH": "2025-12-03T12:03:53.756928", "MEAN_MOTION": 14.49281712, "ECCENTRICITY": 0.0014324, "INCLINATION": 74.0401, "RA_OF_ASC_NODE": 240.4268, "ARG_OF_PERICENTER": 289.0048, "MEAN_ANOMALY": 257.4606, "EPHEMERIS_TYPE": 0, "CLASSIFICATION_TYPE": "U", "NORAD_CAT_ID": 34388, "ELEMENT_SET_NO": 999, "REV_AT_EPOCH": 88021, "BSTAR": 0.0011437, "MEAN_MOTION_DOT": 4.344e-05, "MEAN_MOTION_DDOT": 0}, "tle": {"line1": "1 34388U 93036QD  25337.50270552  .00004344  00000+0  11437-2 0  9995", "line2": "2 34388  74.0401 240.4268 0014324 289.0048 257.4606 14.49281712880213"}}, "geometry": {"type": "Point", "coordinates": [-122.17589206990385, -7.485608989806881]}}, {"type": "Feature", "properties": {"norad_id": 34389, "name": "COSMOS 2251 DEB", "group": "cosmos-2251-debris", "lat": -73.77376480953842, "lon": 166.47154469185585, "alt_km": 768.4973735111234, "timestamp": "2025-12-03T17:47:51.112404+00:00", "meta": {"OBJECT_NAME": "COSMOS 2251 DEB", "OBJECT_ID": "1993-036QE", "EPOCH": "2025-12-03T05:35:36.167136", "MEAN_MOTION": 14.41490102, "ECCENTRICITY": 0.002844, "INCLINATION": 74.0187, "RA_OF_ASC_NODE": 267.441, "ARG_OF_PERICENTER": 21.5357, "MEAN_ANOMALY": 128.2079, "EPHEMERIS_TYPE": 0, "CLASSIFICATION_TYPE": "U", "NORAD_CAT_ID": 34389, "ELEMENT_SET_NO": 999, "REV_AT_EPOCH": 87875, "BSTAR": 0.00063199, "MEAN_MOTION_DOT": 2.036e-05, "MEAN_MOTION_DDOT": 0}, "tle": {"line1": "1 34389U 93036QE  25337.23305749  .00002036  00000+0  63199-3 0  9992", "line2": "2 34389  74.0187 267.4410 0028440  21.5357 128.2079 14.41490102878751"}}, "geometry": {"type": "Point", "coordinates": [166.47154469185585, -73.77376480953842]}}, {"type": "Feature", "properties": {"norad_id": 34396, "name": "COSMOS 2251 DEB", "group": "cosmos-2251-debris", "lat": -32.07189352954682, "lon": -28.058628965547086, "alt_km": 649.5255669766993, "timestamp": "2025-12-03T17:47:51.112415+00:00", "meta": {"OBJECT_NAME": "COSMOS 2251 DEB", "OBJECT_ID": "1993-036QM", "EPOCH": "2025-12-03T10:26:40.865280", "MEAN_MOTION": 14.73979832, "ECCENTRICITY": 0.0007503, "INCLINATION": 74.0271, "RA_OF_ASC_NODE": 142.1998, "ARG_OF_PERICENTER": 184.3041, "MEAN_ANOMALY": 204.0554, "EPHEMERIS_TYPE": 0, "CLASSIFICATION_TYPE": "U", "NORAD_CAT_ID": 34396, "ELEMENT_SET_NO": 999, "REV_AT_EPOCH": 88209, "BSTAR": 0.0028239, "MEAN_MOTION_DOT": 0.00018583, "MEAN_MOTION_DDOT": 0}, "tle": {"line1": "1 34396U 93036QM  25337.43519520  .00018583  00000+0  28239-2 0  9995", "line2": "2 34396  74.0271 142.1998 0007503 184.3041 204.0554 14.73979832882098"}}, "geometry": {"type": "Point", "coordinates": [-28.058628965547086, -32.07189352954682]}}]}